start=new Date('2023-01-29T00:00:00.000Z').valueOf();
sats=[{"MEAN_ELEMENT_THEORY":"SGP4","REF_FRAME":"TEME","PERIAPSIS":"538.820","NORAD_CAT_ID":"54184","ARG_OF_PERICENTER":"86.5590","MEAN_ANOMALY":"273.5554","RA_OF_ASC_NODE":"62.9005","GP_ID":"223915770","LAUNCH_DATE":"2022-10-28","INCLINATION":"53.2178","CLASSIFICATION_TYPE":"U","OBJECT_ID":"2022-141AD","TLE_LINE1":"1 54184U 22141AD  23028.80919672 -.00001789  00000-0 -94342-4 0  9992","APOAPSIS":"540.654","MEAN_MOTION_DDOT":"0.0000000000000","RCS_SIZE":"LARGE","PERIOD":"95.437","SEMIMAJOR_AXIS":"6917.872","TIME_SYSTEM":"UTC","OBJECT_TYPE":"PAYLOAD","REV_AT_EPOCH":"1438","EPOCH":"2023-01-28T19:25:14.596608","OBJECT_NAME":"STARLINK-5162","CENTER_NAME":"EARTH","TLE_LINE2":"2 54184  53.2178  62.9005 0001325  86.5590 273.5554 15.08842721 14381","ECCENTRICITY":"0.00013250","FILE":"3764201","EPHEMERIS_TYPE":"0","MEAN_MOTION_DOT":"-0.00001789","SITE":"AFWTR","COUNTRY_CODE":"US","ELEMENT_SET_NO":"999","BSTAR":"-0.00009434200000","MEAN_MOTION":"15.08842721","DECAY_DATE":null},{"BSTAR":"0.00010127000000","ELEMENT_SET_NO":"999","COUNTRY_CODE":"US","DECAY_DATE":null,"MEAN_MOTION":"15.08841218","EPHEMERIS_TYPE":"0","FILE":"3764201","ECCENTRICITY":"0.00014830","SITE":"AFWTR","MEAN_MOTION_DOT":"0.00001324","EPOCH":"2023-01-28T19:41:09.707136","REV_AT_EPOCH":"1438","OBJECT_TYPE":"PAYLOAD","TLE_LINE2":"2 54185  53.2168  62.9695 0001483  82.0399 278.0761 15.08841218 14389","CENTER_NAME":"EARTH","OBJECT_NAME":"STARLINK-5235","TIME_SYSTEM":"UTC","SEMIMAJOR_AXIS":"6917.877","PERIOD":"95.437","RCS_SIZE":"LARGE","CLASSIFICATION_TYPE":"U","OBJECT_ID":"2022-141AE","INCLINATION":"53.2168","MEAN_MOTION_DDOT":"0.0000000000000","TLE_LINE1":"1 54185U 22141AE  23028.82025124  .00001324  00000-0  10127-3 0  9996","APOAPSIS":"540.768","GP_ID":"223914552","RA_OF_ASC_NODE":"62.9695","LAUNCH_DATE":"2022-10-28","NORAD_CAT_ID":"54185","PERIAPSIS":"538.716","REF_FRAME":"TEME","MEAN_ELEMENT_THEORY":"SGP4","MEAN_ANOMALY":"278.0761","ARG_OF_PERICENTER":"82.0399"},{"ELEMENT_SET_NO":"999","COUNTRY_CODE":"US","BSTAR":"0.00003750600000","DECAY_DATE":null,"MEAN_MOTION":"15.08839465","REV_AT_EPOCH":"1451","OBJECT_TYPE":"PAYLOAD","EPOCH":"2023-01-28T18:56:14.419392","OBJECT_NAME":"STARLINK-5194","TLE_LINE2":"2 54186  53.2197  53.5042 0001494  96.2071 263.9091 15.08839465 14515","CENTER_NAME":"EARTH","ECCENTRICITY":"0.00014940","EPHEMERIS_TYPE":"0","FILE":"3764201","SITE":"AFWTR","MEAN_MOTION_DOT":"0.00000309","INCLINATION":"53.2197","CLASSIFICATION_TYPE":"U","OBJECT_ID":"2022-141AF","TLE_LINE1":"1 54186U 22141AF  23028.78905578  .00000309  00000-0  37506-4 0  9995","APOAPSIS":"540.781","MEAN_MOTION_DDOT":"0.0000000000000","PERIOD":"95.438","RCS_SIZE":"LARGE","TIME_SYSTEM":"UTC","SEMIMAJOR_AXIS":"6917.882","MEAN_ELEMENT_THEORY":"SGP4","NORAD_CAT_ID":"54186","REF_FRAME":"TEME","PERIAPSIS":"538.713","MEAN_ANOMALY":"263.9091","ARG_OF_PERICENTER":"96.2071","GP_ID":"223914800","RA_OF_ASC_NODE":"53.5042","LAUNCH_DATE":"2022-10-28"},{"INCLINATION":"53.2162","CLASSIFICATION_TYPE":"U","OBJECT_ID":"2022-141AG","APOAPSIS":"540.537","TLE_LINE1":"1 54187U 22141AG  23028.82761653 -.00001116  00000-0 -52033-4 0  9996","MEAN_MOTION_DDOT":"0.0000000000000","PERIOD":"95.437","RCS_SIZE":"LARGE","TIME_SYSTEM":"UTC","SEMIMAJOR_AXIS":"6917.862","MEAN_ELEMENT_THEORY":"SGP4","NORAD_CAT_ID":"54187","REF_FRAME":"TEME","PERIAPSIS":"538.917","ARG_OF_PERICENTER":"111.2911","MEAN_ANOMALY":"248.8206","GP_ID":"223915538","RA_OF_ASC_NODE":"63.0307","LAUNCH_DATE":"2022-10-28","ELEMENT_SET_NO":"999","COUNTRY_CODE":"US","BSTAR":"-0.00005203300000","DECAY_DATE":null,"MEAN_MOTION":"15.08846107","REV_AT_EPOCH":"1438","OBJECT_TYPE":"PAYLOAD","EPOCH":"2023-01-28T19:51:46.068192","OBJECT_NAME":"STARLINK-5240","CENTER_NAME":"EARTH","TLE_LINE2":"2 54187  53.2162  63.0307 0001171 111.2911 248.8206 15.08846107 14387","ECCENTRICITY":"0.00011710","FILE":"3764201","EPHEMERIS_TYPE":"0","SITE":"AFWTR","MEAN_MOTION_DOT":"-0.00001116"},{"RA_OF_ASC_NODE":"55.0078","GP_ID":"223882255","LAUNCH_DATE":"2022-10-28","REF_FRAME":"TEME","PERIAPSIS":"538.896","NORAD_CAT_ID":"54188","MEAN_ELEMENT_THEORY":"SGP4","ARG_OF_PERICENTER":"105.2160","MEAN_ANOMALY":"254.8975","SEMIMAJOR_AXIS":"6917.925","TIME_SYSTEM":"UTC","RCS_SIZE":"LARGE","PERIOD":"95.438","OBJECT_ID":"2022-141AH","CLASSIFICATION_TYPE":"U","INCLINATION":"53.2191","MEAN_MOTION_DDOT":"0.0000000000000","APOAPSIS":"540.683","TLE_LINE1":"1 54188U 22141AH  23028.46059752 -.00002187  00000-0 -11939-3 0  9995","EPHEMERIS_TYPE":"0","FILE":"3763924","ECCENTRICITY":"0.00012920","MEAN_MOTION_DOT":"-0.00002187","SITE":"AFWTR","EPOCH":"2023-01-28T11:03:15.625728","OBJECT_TYPE":"PAYLOAD","REV_AT_EPOCH":"1446","CENTER_NAME":"EARTH","TLE_LINE2":"2 54188  53.2191  55.0078 0001292 105.2160 254.8975 15.08825547 14463","OBJECT_NAME":"STARLINK-5238","BSTAR":"-0.00011939000000","COUNTRY_CODE":"US","ELEMENT_SET_NO":"999","MEAN_MOTION":"15.08825547","DECAY_DATE":null},{"MEAN_ELEMENT_THEORY":"SGP4","NORAD_CAT_ID":"54189","PERIAPSIS":"543.778","REF_FRAME":"TEME","ARG_OF_PERICENTER":"103.4528","MEAN_ANOMALY":"256.6617","GP_ID":"223914054","RA_OF_ASC_NODE":"62.7271","LAUNCH_DATE":"2022-10-28","INCLINATION":"53.2177","OBJECT_ID":"2022-141AJ","CLASSIFICATION_TYPE":"U","TLE_LINE1":"1 54189U 22141AJ  23028.78376449 -.00002207  00000-0 -12639-3 0  9997","APOAPSIS":"545.687","MEAN_MOTION_DDOT":"0.0000000000000","PERIOD":"95.541","RCS_SIZE":"LARGE","TIME_SYSTEM":"UTC","SEMIMAJOR_AXIS":"6922.868","REV_AT_EPOCH":"1438","OBJECT_TYPE":"PAYLOAD","EPOCH":"2023-01-28T18:48:37.251936","OBJECT_NAME":"STARLINK-5182","CENTER_NAME":"EARTH","TLE_LINE2":"2 54189  53.2177  62.7271 0001379 103.4528 256.6617 15.07209864 14383","ECCENTRICITY":"0.00013790","EPHEMERIS_TYPE":"0","FILE":"3764201","SITE":"AFWTR","MEAN_MOTION_DOT":"-0.00002207","COUNTRY_CODE":"US","ELEMENT_SET_NO":"999","BSTAR":"-0.00012639000000","DECAY_DATE":null,"MEAN_MOTION":"15.07209864"},{"MEAN_ELEMENT_THEORY":"SGP4","NORAD_CAT_ID":"54190","REF_FRAME":"TEME","PERIAPSIS":"538.566","MEAN_ANOMALY":"273.8951","ARG_OF_PERICENTER":"86.2235","GP_ID":"223914303","RA_OF_ASC_NODE":"53.4994","LAUNCH_DATE":"2022-10-28","INCLINATION":"53.2204","OBJECT_ID":"2022-141AK","CLASSIFICATION_TYPE":"U","APOAPSIS":"540.903","TLE_LINE1":"1 54190U 22141AK  23028.78809679 -.00001401  00000-0 -69922-4 0  9998","MEAN_MOTION_DDOT":"0.0000000000000","PERIOD":"95.437","RCS_SIZE":"LARGE","TIME_SYSTEM":"UTC","SEMIMAJOR_AXIS":"6917.870","REV_AT_EPOCH":"1451","OBJECT_TYPE":"PAYLOAD","EPOCH":"2023-01-28T18:54:51.562656","OBJECT_NAME":"STARLINK-5281","TLE_LINE2":"2 54190  53.2204  53.4994 0001689  86.2235 273.8951 15.08843464 14510","CENTER_NAME":"EARTH","ECCENTRICITY":"0.00016890","FILE":"3764201","EPHEMERIS_TYPE":"0","SITE":"AFWTR","MEAN_MOTION_DOT":"-0.00001401","COUNTRY_CODE":"US","ELEMENT_SET_NO":"999","BSTAR":"-0.00006992200000","DECAY_DATE":null,"MEAN_MOTION":"15.08843464"},{"OBJECT_NAME":"STARLINK-4619","TLE_LINE2":"2 54191  53.2186  53.5675 0001434  98.1524 261.9631 15.08844432 14517","CENTER_NAME":"EARTH","REV_AT_EPOCH":"1451","OBJECT_TYPE":"PAYLOAD","EPOCH":"2023-01-28T19:10:46.482240","SITE":"AFWTR","MEAN_MOTION_DOT":"-0.00000500","ECCENTRICITY":"0.00014340","FILE":"3764201","EPHEMERIS_TYPE":"0","DECAY_DATE":null,"MEAN_MOTION":"15.08844432","COUNTRY_CODE":"US","ELEMENT_SET_NO":"999","BSTAR":"-0.00001335300000","ARG_OF_PERICENTER":"98.1524","MEAN_ANOMALY":"261.9631","MEAN_ELEMENT_THEORY":"SGP4","NORAD_CAT_ID":"54191","REF_FRAME":"TEME","PERIAPSIS":"538.740","LAUNCH_DATE":"2022-10-28","GP_ID":"223915047","RA_OF_ASC_NODE":"53.5675","APOAPSIS":"540.724","TLE_LINE1":"1 54191U 22141AL  23028.79914910 -.00000500  00000-0 -13353-4 0  9991","MEAN_MOTION_DDOT":"0.0000000000000","INCLINATION":"53.2186","CLASSIFICATION_TYPE":"U","OBJECT_ID":"2022-141AL","PERIOD":"95.437","RCS_SIZE":"LARGE","TIME_SYSTEM":"UTC","SEMIMAJOR_AXIS":"6917.867"},{"PERIAPSIS":"539.021","REF_FRAME":"TEME","NORAD_CAT_ID":"54192","MEAN_ELEMENT_THEORY":"SGP4","MEAN_ANOMALY":"54.1048","ARG_OF_PERICENTER":"99.8403","RA_OF_ASC_NODE":"52.5701","GP_ID":"223915771","LAUNCH_DATE":"2022-10-28","CLASSIFICATION_TYPE":"U","OBJECT_ID":"2022-141AM","INCLINATION":"53.2166","MEAN_MOTION_DDOT":"0.0000000000000","TLE_LINE1":"1 54192U 22141AM  23028.91667824  .00054146  00000-0  33967-2 0  9999","APOAPSIS":"540.634","SEMIMAJOR_AXIS":"6917.962","TIME_SYSTEM":"UTC","RCS_SIZE":"LARGE","PERIOD":"95.439","EPOCH":"2023-01-28T22:00:00.999936","OBJECT_TYPE":"PAYLOAD","REV_AT_EPOCH":"130","CENTER_NAME":"EARTH","TLE_LINE2":"2 54192  53.2166  52.5701 0001166  99.8403  54.1048 15.08813241  1302","OBJECT_NAME":"STARLINK-5268","FILE":"3764201","EPHEMERIS_TYPE":"0","ECCENTRICITY":"0.00011660","MEAN_MOTION_DOT":"0.00054146","SITE":"AFWTR","BSTAR":"0.00339670000000","COUNTRY_CODE":"US","ELEMENT_SET_NO":"999","MEAN_MOTION":"15.08813241","DECAY_DATE":null},{"TLE_LINE2":"2 54193  53.2182  53.4525 0001141  94.1008 266.0115 15.08840496 14515","CENTER_NAME":"EARTH","OBJECT_NAME":"STARLINK-5263","EPOCH":"2023-01-28T18:44:14.924256","OBJECT_TYPE":"PAYLOAD","REV_AT_EPOCH":"1451","MEAN_MOTION_DOT":"0.00000082","SITE":"AFWTR","FILE":"3764201","EPHEMERIS_TYPE":"0","ECCENTRICITY":"0.00011410","MEAN_MOTION":"15.08840496","DECAY_DATE":null,"BSTAR":"0.00002324000000","ELEMENT_SET_NO":"999","COUNTRY_CODE":"US","MEAN_ANOMALY":"266.0115","ARG_OF_PERICENTER":"94.1008","PERIAPSIS":"538.955","REF_FRAME":"TEME","NORAD_CAT_ID":"54193","MEAN_ELEMENT_THEORY":"SGP4","LAUNCH_DATE":"2022-10-28","RA_OF_ASC_NODE":"53.4525","GP_ID":"223914553","MEAN_MOTION_DDOT":"0.0000000000000","TLE_LINE1":"1 54193U 22141AN  23028.78072829  .00000082  00000-0  23240-4 0  9995","APOAPSIS":"540.533","CLASSIFICATION_TYPE":"U","OBJECT_ID":"2022-141AN","INCLINATION":"53.2182","SEMIMAJOR_AXIS":"6917.879","TIME_SYSTEM":"UTC","RCS_SIZE":"LARGE","PERIOD":"95.438"}];
